 2025  425 1733 21.4 L  41.000  28.507  20.0      12 0.0                        1
 2025  425 1733 21.407  40.99980   28.50740    20.000  0.000                    H
 Action:ARG 26-01-02 20:29 OP:OBSP STATUS:               ID:20250425173321     I
 STAT SP IPHASW D HRMM SECON CODA AMPLIT PERI AZIMU VELO AIN AR TRES W  DIS CAZ7
 GUZE     P   0   173321.041                                                    
 SILV     P   0   173322.474                                                    
 BOTS     P   0   173324.283                                                    
 BGKT     P   0   173324.995                                                    
 BRGA     P   0   173326.361                                                    
 KAVV     P   0   173326.760                                                    
 SILV     S   2   173327.126                                                    
 KCTX     P   0   173327.887                                                    
 CRLU     P   0   173327.959                                                    
 MRMT     P   0   173329.653                                                    
 GEML     P   0   173330.029                                                    
 BOTS     S   2   173330.126                                                    
 BRGA     S   2   173333.635                                                    
 KAVV     S   2   173334.198                                                    
 KCTX     S   2   173335.743                                                    
 CRLU     S   2   173336.544                                                    
 GEML     S   2   173340.037                                                    
                                                                                

