 2025  425 1733 16.6 L  40.824  28.439  5.00 BC  10 0.30                       1
 GAP= 67   BC   0.62       1.6     1.7  6.4  0.4080E+00  0.1009E+01  0.2784E+01E
 2025  425 1733 16.599  40.82407   28.43862    5.000  0.283                    H
 Action:ARG 26-01-02 20:29 OP:OBSP STATUS:               ID:20250425173321     I
 STAT SP IPHASW D HRMM SECON CODA AMPLIT PERI AZIMU VELO AIN AR TRES W  DIS CAZ7
 GUZE     P   0   173321.041                              95    0.3510 20.3  16 
 SILV     P   0   173322.474                              68   -0.1810 32.3 329 
 SILV     S   2   173327.126                              69   -0.11 5 32.3 329 
 BOTS     P   0   173324.283                              68   -0.0910 42.7 296 
 BOTS     S   2   173330.126                              69   -0.11 5 42.7 296 
 BGKT     P   0   173324.995                              68   -0.3410 48.6  35 
 BRGA     P   0   173326.361                              68    0.2710 53.2  83 
 BRGA     S   2   173333.635                              69    0.38 5 53.2  83 
 KAVV     P   0   173326.760                              68   -0.2410 58.7  63 
 KAVV     S   2   173334.198                              69   -0.64 5 58.7  63 
 CRLU     P   0   173327.959                              68    0.2910 62.8 304 
 CRLU     S   2   173336.544                              69    0.52 5 62.8 304 
 KCTX     P   0   173327.887                              68    0.1310 62.9 188 
 KCTX     S   2   173335.743                              69   -0.43 5 62.9 188 
 MRMT     P   0   173329.653                              68   -0.2010 76.1 252 
 GEML     P   0   173330.029                              68    0.0910 76.6 121 
 GEML     S   2   173340.037                              69    0.05 5 76.6 121 
                                                                                
